#dP2020  7 17  0  0  0.00000000      96 __u+U ITR00 FIT  IAC
## 2114 432000.00000000   900.00000000 59047 0.0000000000000
+  115   C01C02C04C05C06C07C08C09C10C11C12C13C14C16C19C20C21
+        C22C23C24C25C26C27C28C29C30C32C33C34C35C36C37C45C60
+        E01E02E03E04E05E07E08E09E11E12E13E14E15E18E19E21E24
+        E25E26E27E30E31E33E36G01G02G03G04G05G06G07G08G09G10
+        G11G12G13G14G15G16G17G18G19G20G21G22G24G25G26G27G28
+        G29G30G31G32J01J02J03J07R01R02R03R04R05R07R08R09R11
+        R12R13R14R15R16R17R18R19R20R21R23R24R26  0  0  0  0
++        13 13 13 13  8  8  8  8  8  8  8  8  8  8  7  7  8
++         7  8  8  8  7  8  8  8  8  8  8  8  8  8  8  0 16
++         4  5  5  4  4  5  4  4  5  4  4  4  4  4  4  4  4
++         5  5  5  4  4  5  5  3  3  3  3  3  3  3  3  3  3
++         3  3  3  4  3  4  4  3  3  3  3  3  3  3  3  3  3
++         3  3  3  3  9  8  8  0  6  5  6  6  6  6  5  5  5
++         6  6  6  5  6  5  6  6  6  5  6  5  8  0  0  0  0
%c M  cc GPS ccc cccc cccc cccc cccc ccccc ccccc ccccc ccccc
%c cc cc ccc ccc cccc cccc cccc cccc ccccc ccccc ccccc ccccc
%f  0.0000000  0.000000000  0.00000000000  0.000000000000000
%f  0.0000000  0.000000000  0.00000000000  0.000000000000000
%i    0    0    0    0      0      0      0      0         0
%i    0    0    0    0      0      0      0      0         0
/* INFORMATION & ANALYSIS CENTER (IAC)            RAPID DATA
/* S/V CLOCKS ARE ALIGNED TO GNSS TIME                      
/* G:C1WC2W R:C1PC2P E:C1XC5X C:C2IC6I J:C1CC2S             
/* PCV:IGS14_2113 OL/AL:FES2004  NONE     YN ORB:CoN CLK:CoN
*  2020 07 17 20 15  0.00000000
PC01 -34372.833598  24459.493884    671.363459   -317.285644
PC02   4503.597229  41891.301450   -764.596092    209.232077
PC04 -39625.646982  14441.524494   -118.543370    -98.712411
PC05  21961.600050  35975.019131   -892.477399   -649.179015
PC06 -19860.389337  36704.470955   4507.673569    784.827028
PC07  -6668.844290  31337.832806  27866.294505    153.293546
PC08 -18208.116671  19061.811359 -32931.400833   -381.797402
PC09 -10174.176415  36658.494950  17997.364406    682.931117
PC10   4771.298150  37193.097328  19905.108616   -234.275718
PC11  20615.227571  -2626.836795 -18545.131528   -497.152890
PC12   7578.776496  13748.137454 -23047.911359    435.345088
PC13  -2136.808415  22840.005722 -35306.917800    548.096300
PC14  16992.638633   7654.923201  20817.849859    682.858132
PC16 -18342.320422  37353.736368   6238.813384   -598.806084
PC19 -15548.766841   3357.573323 -22900.919318    478.195110
PC20 -15810.857032 -16362.197994 -16115.080016   -838.898459
PC21   6612.710703  27120.956759   -538.107140   -660.765048
PC22  -6284.738451  21603.967417 -16524.903243   -771.359050
PC23  11948.698535 -12667.628946 -21796.240242   -844.275358
PC24  24193.395773  12119.040280   6793.852844   -763.010657
PC25  25563.870860  -1374.525595 -11089.071311   -689.481204
PC26   9731.565571  17107.498670  19771.299661    758.353578
PC27   1226.905166 -19779.832632  19633.096756    366.023830
PC28  17160.155450 -21313.158322   5454.129316   -195.394790
PC29 -22613.819026  11257.188795  11850.243432    257.317457
PC30 -15411.599223  -6422.650833  22351.029869    347.875832
PC32  -6781.040049 -27055.621810    576.461074   -876.544102
PC33  15608.820957  -3320.265050  22901.034177   -798.435246
PC34  15806.473949   6007.648859 -22212.517906   -899.649009
PC35 -16525.779981  21842.408071  -5266.298312   -745.531346
PC36 -25679.007215    632.743158  10924.132191   -871.833130
PC37  -8650.359598 -17330.938229 -20066.332009   -872.246887
PC45      0.000000      0.000000      0.000000 999999.999999
PC60   7295.262406  41538.188750   -350.246666     -0.667968
PE01 -10204.714461  12895.007616  24616.365587   -900.357341
PE02  10115.013436 -12966.778343 -24608.830776    147.989725
PE03  12995.441552 -24024.442793  11390.074299   -321.670214
PE04   -761.481610  28795.780525   6833.858971   -567.818028
PE05  17746.852284  -5108.239241  23138.660709   -362.419157
PE07 -12096.308454 -16625.175479 -21277.865138   -410.266326
PE08    471.819394 -28732.354287  -7056.191368   6148.239526
PE09  12131.199211  16449.355390  21427.199177   5993.482898
PE11  19119.404029   8044.956702 -21133.799183   4169.348457
PE12  -1912.102824  17353.004143 -23905.525127   5701.498686
PE13 -18911.102555  -8061.218609  21294.096232    402.388975
PE14 -12990.368282  25213.317373  -1290.360444  -1087.725824
PE15   1651.145108 -17245.829177  24001.341362    859.637551
PE18  20583.697401 -16767.614898 -11286.444437  -1190.879458
PE19 -13867.703630  22580.084756 -13183.103422     30.188732
PE21 -23037.986599  -4068.786266  18132.046479   -610.646580
PE24  22440.405857  19283.302891   -624.439033   5345.720435
PE25  23094.738877   4213.578411 -18024.846811   -513.761879
PE26 -28449.355453   5970.683194   5594.755559   2948.616419
PE27 -22671.323486 -19006.722563    934.343281    175.381574
PE30  -8443.395719 -22702.843820 -17020.745102   3739.460118
PE31   8982.107709  22711.414151  16740.817176   -473.263267
PE33 -21245.997963  16299.406978 -12609.717626   -464.812347
PE36  28372.133493  -5855.238067  -6085.028899    532.826462
PG01   7887.537570  13915.432823 -21496.047480     26.456361
PG02  15178.630632 -14264.204512  17095.653494   -488.722623
PG03  11591.068705  23422.864159  -5123.135500   -242.723859
PG04   3612.155544  19586.508689  17566.883732   -113.636686
PG05   4523.487773 -17276.073544  19453.537537    -16.862370
PG06  24776.895397  -6567.028523   7090.022305   -304.343128
PG07  23451.234883   6693.284152  11413.679249   -329.493723
PG08  -4853.025142  24497.168316  -8644.480475    -41.296471
PG09  12635.183808   9067.291117  21480.430863   -255.274432
PG10 -18345.564886  -3836.840573 -18825.802313   -402.382983
PG11  -1933.248282  18665.667145 -19394.824852   -218.383538
PG12  -9670.826427 -24230.482366  -5626.774662     92.459732
PG13  13005.955414 -22976.598944  -2450.310719     27.618494
PG14 -18092.751497  15709.919148 -10900.989763      2.101024
PG15   1448.234033 -24740.768498  -9338.226453   -216.868783
PG16  -3774.159820  18522.721414  18251.931915   -183.973649
PG17  17859.793363  -8236.126732 -17407.783559    297.405800
PG18 -23320.909655  -6489.470983  10955.113603    248.651070
PG19  18705.695734 -14324.059714 -12517.400476   -130.711525
PG20 -21243.710202 -12883.814007  -9782.540496    527.276484
PG21 -25354.688514   6069.368610  -3491.500770     24.868345
PG22   6998.113761  22640.816851 -11937.812482   -771.329998
PG24  -5901.431882 -15044.474288 -21313.427833    -15.783953
PG25 -16920.501190 -20247.232393   3845.910566     24.435793
PG26 -13419.203916   7888.959900  21494.894604    245.115665
PG27 -12407.266397  23211.509094   1590.841399   -348.329273
PG28  16976.082757   3581.154436 -19486.057591    698.629404
PG29  -8405.026349 -13569.108443  21178.207170   -152.483705
PG30  26660.988341   -303.408538   1015.176026   -264.009112
PG31 -24365.662764   7117.721117   8522.805533    -56.234049
PG32 -17843.329268   9466.476600 -17083.169615    318.586303
PJ01 -19796.562596  27656.307867 -20348.543910   -207.372751
PJ02 -27345.905774  20137.724880  29837.038768     -1.375178
PJ03 -32974.629419  26413.947418   6269.174731     -0.118517
PJ07      0.000000      0.000000      0.000000 999999.999999
PR01  -1333.781465 -25414.873760   1593.356666     64.688747
PR02  -9338.367044 -15728.903673 -17762.335593    436.725763
PR03 -10740.231899   2945.685338 -22901.850236     18.719295
PR04  -5808.438195  19750.583779 -15031.401670     56.642157
PR05   2201.817005  25367.192444   1359.904448     54.245400
PR07  10693.210072  -3686.282650  22904.443377    -38.544221
PR08   5957.284969 -19730.775589  15094.386218    -53.517570
PR09  22997.016581  11128.585526   -121.820992    143.941279
PR11   8139.112847  -8282.305780 -22697.437248    -30.867006
PR12  -9065.636281 -14458.687498 -18933.854317    147.944133
PR13 -21763.633847 -12627.582584  -4175.562826    -41.327083
PR14 -21485.923828  -3461.206508  13304.564375     53.441852
PR15  -8886.669730   7637.480440  22681.010257    106.945639
PR16   9780.186303  14462.161143  18529.422597     -4.697283
PR17 -21609.562492   8440.164536  10652.650675    342.042174
PR18 -18987.728221  15796.374065  -6261.600394     42.631780
PR19  -7112.874687  14710.871908 -19596.184831   -102.785927
PR20  11634.308733   4461.990654 -22263.907409   -416.989215
PR21  21757.936344  -8994.899628  -9785.937918   -138.786502
PR23     88.641921 -12060.360024  22461.774243    319.288596
PR24 -12487.469906  -4268.417033  21841.399082      6.630932
PR26   7299.694614   7661.093798 -23201.391583   -365.098025
EOF
